{
  "type": "FeatureCollection",
  "features": [
    {
      "type": "Feature",
      "properties": {
        "norad_id": 39773,
        "name": "EUTELSAT 3B",
        "group": "eutelsat",
        "lat": -0.04554054970008609,
        "lon": -149.5474591514278,
        "alt_km": 35770.15055999322,
        "timestamp": "2025-12-26T07:29:18.130863+00:00",
        "meta_object_name": "EUTELSAT 3B",
        "meta_object_id": "2014-030A",
        "meta_epoch": "2025-12-25T19:55:47.736768",
        "meta_mean_motion": 1.00270268,
        "meta_eccentricity": 0.00042727,
        "meta_inclination": 0.0603,
        "meta_ra_of_asc_node": 351.1895,
        "meta_arg_of_pericenter": 244.0323,
        "meta_mean_anomaly": 161.4098,
        "meta_ephemeris_type": 0,
        "meta_classification_type": "U",
        "meta_norad_cat_id": 39773,
        "meta_element_set_no": 999,
        "meta_rev_at_epoch": 4232,
        "meta_bstar": 0,
        "meta_mean_motion_dot": 4.1e-07,
        "meta_mean_motion_ddot": 0,
        "tle_line1": "1 39773U 14030A   25359.83041362  .00000041  00000+0  00000+0 0  9991",
        "tle_line2": "2 39773   0.0603 351.1895 0004272 244.0323 161.4098  1.00270268 42321"
      },
      "geometry": {
        "type": "Point",
        "coordinates": [
          -149.5474591514278,
          -0.04554054970008609
        ]
      }
    },
    {
      "type": "Feature",
      "properties": {
        "norad_id": 40425,
        "name": "EUTELSAT 115 WEST B",
        "group": "eutelsat",
        "lat": -0.02307064672832251,
        "lon": 92.46818679947734,
        "alt_km": 35786.075311261455,
        "timestamp": "2025-12-26T07:29:18.130874+00:00",
        "meta_object_name": "EUTELSAT 115 WEST B",
        "meta_object_id": "2015-010B",
        "meta_epoch": "2025-12-24T09:59:58.343136",
        "meta_mean_motion": 1.00271259,
        "meta_eccentricity": 1.435e-05,
        "meta_inclination": 0.0435,
        "meta_ra_of_asc_node": 188.915,
        "meta_arg_of_pericenter": 182.2118,
        "meta_mean_anomaly": 117.1483,
        "meta_ephemeris_type": 0,
        "meta_classification_type": "U",
        "meta_norad_cat_id": 40425,
        "meta_element_set_no": 999,
        "meta_rev_at_epoch": 3964,
        "meta_bstar": 0,
        "meta_mean_motion_dot": -4e-08,
        "meta_mean_motion_ddot": 0,
        "tle_line1": "1 40425U 15010B   25358.41664749 -.00000004  00000+0  00000+0 0  9999",
        "tle_line2": "2 40425   0.0435 188.9150 0000143 182.2118 117.1483  1.00271259 39646"
      },
      "geometry": {
        "type": "Point",
        "coordinates": [
          92.46818679947734,
          -0.02307064672832251
        ]
      }
    },
    {
      "type": "Feature",
      "properties": {
        "norad_id": 40875,
        "name": "EUTELSAT 8 WEST B",
        "group": "eutelsat",
        "lat": -0.014502096414945516,
        "lon": -160.67246398330744,
        "alt_km": 35781.71510120318,
        "timestamp": "2025-12-26T07:29:18.130886+00:00",
        "meta_object_name": "EUTELSAT 8 WEST B",
        "meta_object_id": "2015-039B",
        "meta_epoch": "2025-12-25T06:10:40.433088",
        "meta_mean_motion": 1.00271322,
        "meta_eccentricity": 0.000422,
        "meta_inclination": 0.0645,
        "meta_ra_of_asc_node": 9.1951,
        "meta_arg_of_pericenter": 265.5835,
        "meta_mean_anomaly": 263.9078,
        "meta_ephemeris_type": 0,
        "meta_classification_type": "U",
        "meta_norad_cat_id": 40875,
        "meta_element_set_no": 999,
        "meta_rev_at_epoch": 3791,
        "meta_bstar": 0,
        "meta_mean_motion_dot": -4.4e-07,
        "meta_mean_motion_ddot": 0,
        "tle_line1": "1 40875U 15039B   25359.25741242 -.00000044  00000+0  00000+0 0  9990",
        "tle_line2": "2 40875   0.0645   9.1951 0004220 265.5835 263.9078  1.00271322 37911"
      },
      "geometry": {
        "type": "Point",
        "coordinates": [
          -160.67246398330744,
          -0.014502096414945516
        ]
      }
    },
    {
      "type": "Feature",
      "properties": {
        "norad_id": 41310,
        "name": "EUTELSAT 9B",
        "group": "eutelsat",
        "lat": -0.001197393672242474,
        "lon": -143.67413529690205,
        "alt_km": 35776.312196084764,
        "timestamp": "2025-12-26T07:29:18.130898+00:00",
        "meta_object_name": "EUTELSAT 9B",
        "meta_object_id": "2016-005A",
        "meta_epoch": "2025-12-25T16:31:52.264704",
        "meta_mean_motion": 1.00269837,
        "meta_eccentricity": 0.00046711,
        "meta_inclination": 0.0258,
        "meta_ra_of_asc_node": 45.4208,
        "meta_arg_of_pericenter": 229.6362,
        "meta_mean_anomaly": 76.3538,
        "meta_ephemeris_type": 0,
        "meta_classification_type": "U",
        "meta_norad_cat_id": 41310,
        "meta_element_set_no": 999,
        "meta_rev_at_epoch": 3637,
        "meta_bstar": 0,
        "meta_mean_motion_dot": 8.3e-07,
        "meta_mean_motion_ddot": 0,
        "tle_line1": "1 41310U 16005A   25359.68879936  .00000083  00000+0  00000+0 0  9990",
        "tle_line2": "2 41310   0.0258  45.4208 0004671 229.6362  76.3538  1.00269837 36374"
      },
      "geometry": {
        "type": "Point",
        "coordinates": [
          -143.67413529690205,
          -0.001197393672242474
        ]
      }
    },
    {
      "type": "Feature",
      "properties": {
        "norad_id": 41382,
        "name": "EUTELSAT 65 WEST A",
        "group": "eutelsat",
        "lat": 0.03209406901033793,
        "lon": 142.17868752993388,
        "alt_km": 35793.305675757474,
        "timestamp": "2025-12-26T07:29:18.130910+00:00",
        "meta_object_name": "EUTELSAT 65 WEST A",
        "meta_object_id": "2016-014A",
        "meta_epoch": "2025-12-25T21:18:58.027968",
        "meta_mean_motion": 1.00271466,
        "meta_eccentricity": 0.0002336,
        "meta_inclination": 0.048,
        "meta_ra_of_asc_node": 346.0355,
        "meta_arg_of_pericenter": 291.9689,
        "meta_mean_anomaly": 71.1992,
        "meta_ephemeris_type": 0,
        "meta_classification_type": "U",
        "meta_norad_cat_id": 41382,
        "meta_element_set_no": 999,
        "meta_rev_at_epoch": 3579,
        "meta_bstar": 0,
        "meta_mean_motion_dot": -2.55e-06,
        "meta_mean_motion_ddot": 0,
        "tle_line1": "1 41382U 16014A   25359.88817162 -.00000255  00000+0  00000+0 0  9996",
        "tle_line2": "2 41382   0.0480 346.0355 0002336 291.9689  71.1992  1.00271466 35796"
      },
      "geometry": {
        "type": "Point",
        "coordinates": [
          142.17868752993388,
          0.03209406901033793
        ]
      }
    },
    {
      "type": "Feature",
      "properties": {
        "norad_id": 41589,
        "name": "EUTELSAT 117 WEST B",
        "group": "eutelsat",
        "lat": -0.004307463605761121,
        "lon": 90.41016559538907,
        "alt_km": 35786.77807699634,
        "timestamp": "2025-12-26T07:29:18.130921+00:00",
        "meta_object_name": "EUTELSAT 117 WEST B",
        "meta_object_id": "2016-038B",
        "meta_epoch": "2025-12-24T09:59:01.014144",
        "meta_mean_motion": 1.00277873,
        "meta_eccentricity": 6.384e-05,
        "meta_inclination": 0.0094,
        "meta_ra_of_asc_node": 154.0765,
        "meta_arg_of_pericenter": 139.5473,
        "meta_mean_anomaly": 192.3072,
        "meta_ephemeris_type": 0,
        "meta_classification_type": "U",
        "meta_norad_cat_id": 41589,
        "meta_element_set_no": 999,
        "meta_rev_at_epoch": 3491,
        "meta_bstar": 0,
        "meta_mean_motion_dot": 9e-08,
        "meta_mean_motion_ddot": 0,
        "tle_line1": "1 41589U 16038B   25358.41598396  .00000009  00000+0  00000+0 0  9990",
        "tle_line2": "2 41589   0.0094 154.0765 0000638 139.5473 192.3072  1.00277873 34915"
      },
      "geometry": {
        "type": "Point",
        "coordinates": [
          90.41016559538907,
          -0.004307463605761121
        ]
      }
    },
    {
      "type": "Feature",
      "properties": {
        "norad_id": 42741,
        "name": "EUTELSAT 172B",
        "group": "eutelsat",
        "lat": -0.019623758766801804,
        "lon": 19.395266157839224,
        "alt_km": 35784.36726361236,
        "timestamp": "2025-12-26T07:29:18.130933+00:00",
        "meta_object_name": "EUTELSAT 172B",
        "meta_object_id": "2017-029B",
        "meta_epoch": "2025-12-25T20:43:50.636064",
        "meta_mean_motion": 1.00277797,
        "meta_eccentricity": 3.199e-05,
        "meta_inclination": 0.0359,
        "meta_ra_of_asc_node": 152.4382,
        "meta_arg_of_pericenter": 137.6622,
        "meta_mean_anomaly": 287.482,
        "meta_ephemeris_type": 0,
        "meta_classification_type": "U",
        "meta_norad_cat_id": 42741,
        "meta_element_set_no": 999,
        "meta_rev_at_epoch": 3199,
        "meta_bstar": 0,
        "meta_mean_motion_dot": 1.7e-07,
        "meta_mean_motion_ddot": 0,
        "tle_line1": "1 42741U 17029B   25359.86378051  .00000017  00000+0  00000+0 0  9995",
        "tle_line2": "2 42741   0.0359 152.4382 0000319 137.6622 287.4820  1.00277797 31995"
      },
      "geometry": {
        "type": "Point",
        "coordinates": [
          19.395266157839224,
          -0.019623758766801804
        ]
      }
    }
  ]
}